     2              NAVIGATION DATA                         RINEX VERSION / TYPE
CCRINEXN V1.6.0 UX  CDDIS               25-AUG-18 17:31     PGM / RUN BY / DATE 
IGS BROADCAST EPHEMERIS FILE                                COMMENT             
    0.5588D-08  0.1490D-07 -0.5960D-07 -0.1192D-06          ION ALPHA           
    0.7782D+05  0.3277D+05 -0.6554D+05 -0.2621D+06          ION BETA            
    0.186264514923D-08 0.115463194561D-13    61440     2016 DELTA-UTC: A0,A1,T,W
    18                                                      LEAP SECONDS        
                                                            END OF HEADER       
25 18  8 24 21 30  0.0-0.636640645098D-03-0.575894887334D-11 0.000000000000D+00
    0.162000000000D+03 0.497421875000D+02 0.375462068074D-08 0.299965313886D+01
    0.260490924120D-05 0.744330795715D-02 0.115539878607D-04 0.515360623322D+04
    0.509400000000D+06 0.456348061562D-07-0.666664708233D-01-0.419095158577D-07
    0.973686328550D+00 0.163074218750D+03 0.866463480025D+00-0.748632676301D-08
   -0.869679082768D-10 0.100000000000D+01 0.201500000000D+04 0.000000000000D+00
    0.204800000000D+04 0.000000000000D+00 0.558793544769D-08 0.162000000000D+03
    0.506214000000D+06 0.400000000000D+01 0.000000000000D+00 0.000000000000D+00
26 18  8 24 21 30  0.0-0.414339010604D-04 0.117594822768D-10 0.000000000000D+00
    0.162000000000D+03 0.526835937500D+02 0.422856899402D-08 0.247931168910D+01
    0.273436307907D-05 0.285396480467D-02 0.106664374471D-04 0.515371478470D+04
    0.509400000000D+06-0.270083546638D-07-0.902032032683D-01-0.186264514923D-07
    0.955146411510D+00 0.171531250000D+03 0.772996301713D-01-0.781241177434D-08
   -0.161971032458D-09 0.100000000000D+01 0.201500000000D+04 0.000000000000D+00
    0.204800000000D+04 0.000000000000D+00 0.745058059692D-08 0.162000000000D+03
    0.504012000000D+06 0.400000000000D+01 0.000000000000D+00 0.000000000000D+00
29 18  8 24 21 30  0.0 0.389705790440D-03-0.730082660994D-11 0.000000000000D+00
    0.162000000000D+03 0.744179687500D+02 0.409820642103D-08 0.121700050854D+01
    0.378768891096D-05 0.835812301375D-03 0.369921326637D-05 0.515364095374D+04
    0.509400000000D+06-0.931322574616D-08 0.103829734022D+01 0.149011611938D-07
    0.984339328724D+00 0.319140625000D+03 0.153894395691D+01-0.807295834143D-08
    0.366979571887D-09 0.100000000000D+01 0.201500000000D+04 0.000000000000D+00
    0.204800000000D+04 0.000000000000D+00-0.102445483208D-07 0.162000000000D+03
    0.506940000000D+06 0.400000000000D+01 0.000000000000D+00 0.000000000000D+00
30 18  8 24 21 30  0.0 0.333008647431D-04-0.504130071022D-11 0.000000000000D+00
    0.162000000000D+03-0.329687500000D+02 0.508378318855D-08-0.227123886916D+01
   -0.178255140781D-05 0.361973477993D-02 0.688061118126D-05 0.515369349010D+04
    0.509400000000D+06-0.186264514923D-08-0.106772671766D+01-0.409781932831D-07
    0.943014767619D+00 0.236531250000D+03-0.298562731157D+01-0.826243051942D-08
   -0.546451333320D-09 0.100000000000D+01 0.201500000000D+04 0.000000000000D+00
    0.102400000000D+04 0.000000000000D+00 0.372529029846D-08 0.162000000000D+03
    0.504012000000D+06 0.400000000000D+01 0.000000000000D+00 0.000000000000D+00
31 18  8 24 21 30  0.0 0.983615464065D-04-0.267164068646D-11 0.000000000000D+00
    0.162000000000D+03-0.325273437500D+02 0.467001595348D-08-0.245596033032D+01
   -0.169407576323D-05 0.883696740493D-02 0.669807195664D-05 0.515372095591D+04
    0.509400000000D+06-0.155530869961D-06-0.108712725990D+01-0.316649675369D-07
    0.962062143876D+00 0.253429687500D+03-0.117932868857D+00-0.804152846082D-08
   -0.519664503255D-09 0.100000000000D+01 0.201500000000D+04 0.000000000000D+00
    0.102400000000D+04 0.000000000000D+00-0.135041773319D-07 0.162000000000D+03
    0.504060000000D+06 0.400000000000D+01 0.000000000000D+00 0.000000000000D+00
32 18  8 24 21 30  0.0-0.442896620370D-03 0.101181285572D-10 0.000000000000D+00
    0.162000000000D+03 0.332617187500D+02 0.495538498310D-08 0.129963012347D+01
    0.175088644028D-05 0.230219896184D-02 0.636093318462D-05 0.515369340786D+04
    0.509400000000D+06 0.838190317154D-08-0.217245706527D+01 0.791624188423D-07
    0.956893123994D+00 0.255390625000D+03-0.253273266264D+01-0.826207336169D-08
    0.318406120036D-09 0.100000000000D+01 0.201500000000D+04 0.000000000000D+00
    0.102400000000D+04 0.000000000000D+00 0.465661287308D-09 0.162000000000D+03
    0.504012000000D+06 0.400000000000D+01 0.000000000000D+00 0.000000000000D+00
 2 18  8 24 21 59 44.0 0.183060765266D-04-0.111413100967D-10 0.000000000000D+00
    0.320000000000D+02-0.838437500000D+02 0.512771380912D-08-0.104689318280D+01
   -0.388734042644D-05 0.180132613750D-01 0.325031578541D-05 0.515379812050D+04
    0.511184000000D+06-0.838190317154D-07 0.196659884291D+01 0.437721610069D-06
    0.951158060877D+00 0.313843750000D+03-0.183705428416D+01-0.870500560524D-08
   -0.180364653768D-09 0.100000000000D+01 0.201500000000D+04 0.000000000000D+00
    0.200000000000D+01 0.000000000000D+00-0.204890966415D-07 0.320000000000D+02
    0.509340000000D+06 0.000000000000D+00 0.000000000000D+00 0.000000000000D+00
15 18  8 24 21 59 44.0-0.347692053765D-03 0.909494701773D-12 0.000000000000D+00
    0.390000000000D+02 0.363125000000D+02 0.567523628092D-08-0.741609525985D-01
    0.200606882572D-05 0.105281723663D-01 0.651553273201D-05 0.515379549217D+04
    0.511184000000D+06 0.000000000000D+00-0.225087701347D+01 0.912696123123D-07
    0.928148700159D+00 0.233281250000D+03 0.699704215661D+00-0.870571970069D-08
    0.336085437258D-09 0.100000000000D+01 0.201500000000D+04 0.000000000000D+00
    0.200000000000D+01 0.000000000000D+00-0.107102096081D-07 0.390000000000D+02
    0.506700000000D+06 0.000000000000D+00 0.000000000000D+00 0.000000000000D+00
22 18  8 24 21 59 44.0-0.499097630382D-03-0.112549969344D-10 0.000000000000D+00
    0.430000000000D+02-0.605312500000D+02 0.523986098955D-08 0.995174307862D-01
   -0.312179327011D-05 0.715332501568D-02 0.111535191536D-04 0.515373908806D+04
    0.511184000000D+06-0.987201929092D-07 0.300946180636D+01-0.428408384323D-07
    0.926104449156D+00 0.149031250000D+03-0.149304948696D+01-0.838963476468D-08
    0.165721186773D-09 0.100000000000D+01 0.201500000000D+04 0.000000000000D+00
    0.200000000000D+01 0.000000000000D+00-0.181607902050D-07 0.430000000000D+02
    0.509250000000D+06 0.000000000000D+00 0.000000000000D+00 0.000000000000D+00
27 18  8 24 21 59 44.0 0.351215712726D-03-0.318323145621D-11 0.000000000000D+00
    0.200000000000D+01 0.831875000000D+02 0.421124684391D-08 0.836113435572D+00
    0.426359474659D-05 0.601457920857D-02 0.371970236301D-05 0.515369196701D+04
    0.511184000000D+06-0.186264514923D-07 0.972979824698D+00 0.113621354103D-06
    0.977729821686D+00 0.317187500000D+03 0.457740034756D+00-0.815141096756D-08
    0.282511767749D-09 0.100000000000D+01 0.201500000000D+04 0.000000000000D+00
    0.200000000000D+01 0.000000000000D+00 0.186264514923D-08 0.200000000000D+01
    0.509190000000D+06 0.400000000000D+01 0.000000000000D+00 0.000000000000D+00
 1 18  8 24 22  0  0.0-0.801449641585D-04-0.432009983342D-11 0.000000000000D+00
    0.110000000000D+02-0.914687500000D+02 0.447804367135D-08-0.135275119296D+01
   -0.472366809845D-05 0.808106525801D-02 0.369362533093D-05 0.515366567802D+04
    0.511200000000D+06 0.137835741043D-06 0.202960070906D+01-0.242143869400D-07
    0.972111048853D+00 0.309750000000D+03 0.686519700118D+00-0.818784105644D-08
   -0.149649090628D-09 0.100000000000D+01 0.201500000000D+04 0.000000000000D+00
    0.200000000000D+01 0.000000000000D+00 0.558793544769D-08 0.110000000000D+02
    0.504180000000D+06 0.400000000000D+01 0.000000000000D+00 0.000000000000D+00
 2 18  8 24 22  0  0.0 0.183042138815D-04-0.111413100967D-10 0.000000000000D+00
    0.810000000000D+02-0.838437500000D+02 0.512771380912D-08-0.104455972167D+01
   -0.388734042644D-05 0.180132613750D-01 0.325031578541D-05 0.515379812241D+04
    0.511200000000D+06-0.838190317154D-07 0.196659869515D+01 0.437721610069D-06
    0.951158065266D+00 0.313843750000D+03-0.183705417590D+01-0.870500560524D-08
   -0.180364653768D-09 0.100000000000D+01 0.201500000000D+04 0.000000000000D+00
    0.200000000000D+01 0.000000000000D+00-0.204890966415D-07 0.810000000000D+02
    0.504030000000D+06 0.000000000000D+00 0.000000000000D+00 0.000000000000D+00
 3 18  8 24 22  0  0.0 0.126514118165D-03 0.557065504836D-11 0.000000000000D+00
    0.610000000000D+02-0.546875000000D+02 0.429339312277D-08-0.234883985095D+01
   -0.285916030407D-05 0.165892823134D-02 0.119525939226D-04 0.515370247459D+04
    0.511200000000D+06 0.204890966415D-07 0.307230419250D+01-0.447034835815D-07
    0.961949913921D+00 0.148343750000D+03 0.577991283520D+00-0.781425406648D-08
    0.235009789101D-09 0.100000000000D+01 0.201500000000D+04 0.000000000000D+00
    0.200000000000D+01 0.000000000000D+00 0.186264514923D-08 0.610000000000D+02
    0.504000000000D+06 0.400000000000D+01 0.000000000000D+00 0.000000000000D+00
 4 18  8 24 22  0  0.0 0.922549515963D-04 0.386535248253D-11 0.000000000000D+00
    0.320000000000D+02 0.569062500000D+02 0.496377818986D-08 0.206852879092D+01
    0.289268791676D-05 0.977359758690D-02 0.111423432827D-04 0.515373024178D+04
    0.511200000000D+06-0.100582838059D-06-0.413568681881D-01-0.184401869774D-06
    0.978513625397D+00 0.174125000000D+03 0.929337363523D+00-0.757352975363D-08
   -0.107504477993D-09 0.100000000000D+01 0.201500000000D+04 0.000000000000D+00
    0.200000000000D+01 0.630000000000D+02-0.195577740669D-07 0.320000000000D+02
    0.504000000000D+06 0.400000000000D+01 0.000000000000D+00 0.000000000000D+00
